[{"OBJECT_NAME":"STARLINK-6030","OBJECT_ID":"2023-046Q","EPOCH":"2026-03-08T14:54:09.315360","MEAN_MOTION":15.0253491,"ECCENTRICITY":0.00011807,"INCLINATION":43.0021,"RA_OF_ASC_NODE":164.5463,"ARG_OF_PERICENTER":256.1191,"MEAN_ANOMALY":103.952,"EPHEMERIS_TYPE":0,"CLASSIFICATION_TYPE":"U","NORAD_CAT_ID":56107,"ELEMENT_SET_NO":999,"REV_AT_EPOCH":16190,"BSTAR":3.118355e-6,"MEAN_MOTION_DOT":-1.61e-6,"MEAN_MOTION_DDOT":0},{"OBJECT_NAME":"CZ-6A DEB","OBJECT_ID":"2024-140NJ","EPOCH":"2026-03-09T15:30:01.982592","MEAN_MOTION":15.1004937,"ECCENTRICITY":0.00567225,"INCLINATION":88.9288,"RA_OF_ASC_NODE":275.3548,"ARG_OF_PERICENTER":176.1403,"MEAN_ANOMALY":184.0287,"EPHEMERIS_TYPE":0,"CLASSIFICATION_TYPE":"U","NORAD_CAT_ID":61092,"ELEMENT_SET_NO":999,"REV_AT_EPOCH":8278,"BSTAR":0.0051635532,"MEAN_MOTION_DOT":0.00088127,"MEAN_MOTION_DDOT":0}]
